{
    "links": {
        "self": "http://www.neowsapp.com/rest/v1/neo/3144145?api_key=iIulBulltgU6a56xZRHN4H3l9WmuAYTsLGpBGhQ2"
    },
    "id": "3144145",
    "neo_reference_id": "3144145",
    "name": "(2002 XW4)",
    "designation": "2002 XW4",
    "nasa_jpl_url": "http://ssd.jpl.nasa.gov/sbdb.cgi?sstr=3144145",
    "absolute_magnitude_h": 21.7,
    "estimated_diameter": {
        "kilometers": {
            "estimated_diameter_min": 0.1214940408,
            "estimated_diameter_max": 0.2716689341
        },
        "meters": {
            "estimated_diameter_min": 121.4940407996,
            "estimated_diameter_max": 271.6689340891
        },
        "miles": {
            "estimated_diameter_min": 0.0754928736,
            "estimated_diameter_max": 0.1688071972
        },
        "feet": {
            "estimated_diameter_min": 398.6025088171,
            "estimated_diameter_max": 891.3023057169
        }
    },
    "is_potentially_hazardous_asteroid": false,
    "close_approach_data": [
        {
            "close_approach_date": "2002-11-13",
            "close_approach_date_full": "2002-Nov-13 02:26",
            "epoch_date_close_approach": 1037154360000,
            "relative_velocity": {
                "kilometers_per_second": "4.6255201462",
                "kilometers_per_hour": "16651.8725264186",
                "miles_per_hour": "10346.826015096"
            },
            "miss_distance": {
                "astronomical": "0.2420634491",
                "lunar": "94.1626816999",
                "kilometers": "36212176.390213417",
                "miles": "22501203.0142304746"
            },
            "orbiting_body": "Earth"
        }
    ],
    "orbital_data": {
        "orbit_id": "11",
        "orbit_determination_date": "2017-04-06 09:14:34",
        "first_observation_date": "2002-11-28",
        "last_observation_date": "2002-12-28",
        "data_arc_in_days": 30,
        "observations_used": 32,
        "orbit_uncertainty": "8",
        "minimum_orbit_intersection": ".226629",
        "jupiter_tisserand_invariant": "3.321",
        "epoch_osculation": "2452616.5",
        "eccentricity": ".5009810465514623",
        "semi_major_axis": "2.420797083137009",
        "inclination": "6.965092831784204",
        "ascending_node_longitude": "76.29172772862184",
        "orbital_period": "1375.738869955333",
        "perihelion_distance": "1.208023626938303",
        "perihelion_argument": "329.9200504924748",
        "aphelion_distance": "3.633570539335714",
        "perihelion_time": "2452582.350400653972",
        "mean_anomaly": "8.936184063018608",
        "mean_motion": ".2616775667694031",
        "equinox": "J2000",
        "orbit_class": {
            "orbit_class_type": "AMO",
            "orbit_class_description": "Near-Earth asteroid orbits similar to that of 1221 Amor",
            "orbit_class_range": "1.017 AU < q (perihelion) < 1.3 AU"
        }
    },
    "is_sentry_object": false
}